[{"OBJECT_NAME":"SUPERVIEW-1 03","OBJECT_ID":"2018-002A","EPOCH":"2026-03-09T22:14:33.880992","MEAN_MOTION":15.35916978,"ECCENTRICITY":0.00509393,"INCLINATION":97.3162,"RA_OF_ASC_NODE":154.1458,"ARG_OF_PERICENTER":177.0269,"MEAN_ANOMALY":183.1288,"EPHEMERIS_TYPE":0,"CLASSIFICATION_TYPE":"U","NORAD_CAT_ID":43099,"ELEMENT_SET_NO":999,"REV_AT_EPOCH":45311,"BSTAR":0.00062641306,"MEAN_MOTION_DOT":0.00022818,"MEAN_MOTION_DDOT":0},{"OBJECT_NAME":"STARLINK-32543","OBJECT_ID":"2025-063B","EPOCH":"2026-03-09T07:43:30.562464","MEAN_MOTION":15.3021256,"ECCENTRICITY":0.00014454,"INCLINATION":53.1595,"RA_OF_ASC_NODE":51.307,"ARG_OF_PERICENTER":92.2104,"MEAN_ANOMALY":267.9062,"EPHEMERIS_TYPE":0,"CLASSIFICATION_TYPE":"U","NORAD_CAT_ID":63364,"ELEMENT_SET_NO":999,"REV_AT_EPOCH":5473,"BSTAR":0.00079632037,"MEAN_MOTION_DOT":0.00023309,"MEAN_MOTION_DDOT":0}]
